{"type": "FeatureCollection", "features": [ {"type": "Feature", "properties": {"norad_id": 34529, "name": "IRIDIUM 33 DEB", "group": "iridium-33-debris", "lat": -48.62922646881118, "lon": -138.49609170272663, "alt_km": 761.045793328929, "timestamp": "2025-12-08T03:50:07.381579+00:00", "meta": {"OBJECT_NAME": "IRIDIUM 33 DEB", "OBJECT_ID": "1997-051HW", "EPOCH": "2025-12-07T03:26:19.710816", "MEAN_MOTION": 14.40609037, "ECCENTRICITY": 0.00041082, "INCLINATION": 86.3646, "RA_OF_ASC_NODE": 37.7974, "ARG_OF_PERICENTER": 196.1926, "MEAN_ANOMALY": 163.9143, "EPHEMERIS_TYPE": 0, "CLASSIFICATION_TYPE": "U", "NORAD_CAT_ID": 34529, "ELEMENT_SET_NO": 999, "REV_AT_EPOCH": 88061, "BSTAR": 0.00021290228, "MEAN_MOTION_DOT": 6.98e-06, "MEAN_MOTION_DDOT": 0}, "tle": {"line1": "1 34529U 97051HW  25341.14328369  .00000698  00000+0  21290-3 0  9995", "line2": "2 34529  86.3646  37.7974 0004108 196.1926 163.9143 14.40609037880616"}}, "geometry": {"type": "Point", "coordinates": [-138.49609170272663, -48.62922646881118]}}, {"type": "Feature", "properties": {"norad_id": 34538, "name": "IRIDIUM 33 DEB", "group": "iridium-33-debris", "lat": 32.68941284362929, "lon": 9.956846360381439, "alt_km": 732.396887927759, "timestamp": "2025-12-08T03:50:07.381589+00:00", "meta": {"OBJECT_NAME": "IRIDIUM 33 DEB", "OBJECT_ID": "1997-051JF", "EPOCH": "2025-12-07T06:38:08.723904", "MEAN_MOTION": 14.42600183, "ECCENTRICITY": 0.00334838, "INCLINATION": 86.2771, "RA_OF_ASC_NODE": 7.9488, "ARG_OF_PERICENTER": 346.4929, "MEAN_ANOMALY": 141.5957, "EPHEMERIS_TYPE": 0, "CLASSIFICATION_TYPE": "U", "NORAD_CAT_ID": 34538, "ELEMENT_SET_NO": 999, "REV_AT_EPOCH": 87677, "BSTAR": 0.0014728578, "MEAN_MOTION_DOT": 4.942e-05, "MEAN_MOTION_DDOT": 0}, "tle": {"line1": "1 34538U 97051JF  25341.27648986  .00004942  00000+0  14729-2 0  9993", "line2": "2 34538  86.2771   7.9488 0033483 346.4929 141.5957 14.42600183876776"}}, "geometry": {"type": "Point", "coordinates": [9.956846360381439, 32.68941284362929]}}, {"type": "Feature", "properties": {"norad_id": 34540, "name": "IRIDIUM 33 DEB", "group": "iridium-33-debris", "lat": -84.62941654990783, "lon": -93.64389905276443, "alt_km": 653.5411637676734, "timestamp": "2025-12-08T03:50:07.381600+00:00", "meta": {"OBJECT_NAME": "IRIDIUM 33 DEB", "OBJECT_ID": "1997-051JH", "EPOCH": "2025-12-06T21:23:37.747968", "MEAN_MOTION": 14.75129785, "ECCENTRICITY": 0.00154132, "INCLINATION": 86.3105, "RA_OF_ASC_NODE": 310.2798, "ARG_OF_PERICENTER": 180.3432, "MEAN_ANOMALY": 201.9218, "EPHEMERIS_TYPE": 0, "CLASSIFICATION_TYPE": "U", "NORAD_CAT_ID": 34540, "ELEMENT_SET_NO": 999, "REV_AT_EPOCH": 88935, "BSTAR": 0.0025270444, "MEAN_MOTION_DOT": 0.00017126, "MEAN_MOTION_DDOT": 0}, "tle": {"line1": "1 34540U 97051JH  25340.89140912  .00017126  00000+0  25270-2 0  9990", "line2": "2 34540  86.3105 310.2798 0015413 180.3432 201.9218 14.75129785889351"}}, "geometry": {"type": "Point", "coordinates": [-93.64389905276443, -84.62941654990783]}}, {"type": "Feature", "properties": {"norad_id": 34648, "name": "IRIDIUM 33 DEB", "group": "iridium-33-debris", "lat": 33.79716102827368, "lon": -73.7832475291209, "alt_km": 829.4013293785974, "timestamp": "2025-12-08T03:50:07.381610+00:00", "meta": {"OBJECT_NAME": "IRIDIUM 33 DEB", "OBJECT_ID": "1997-051JZ", "EPOCH": "2025-12-06T19:20:47.044320", "MEAN_MOTION": 14.11197938, "ECCENTRICITY": 0.01849632, "INCLINATION": 86.3922, "RA_OF_ASC_NODE": 284.3423, "ARG_OF_PERICENTER": 317.3129, "MEAN_ANOMALY": 41.3805, "EPHEMERIS_TYPE": 0, "CLASSIFICATION_TYPE": "U", "NORAD_CAT_ID": 34648, "ELEMENT_SET_NO": 999, "REV_AT_EPOCH": 84877, "BSTAR": 0.013223828, "MEAN_MOTION_DOT": 0.00028092, "MEAN_MOTION_DDOT": 0}, "tle": {"line1": "1 34648U 97051JZ  25340.80610005  .00028092  00000+0  13224-1 0  9994", "line2": "2 34648  86.3922 284.3423 0184963 317.3129  41.3805 14.11197938848779"}}, "geometry": {"type": "Point", "coordinates": [-73.7832475291209, 33.79716102827368]}}, {"type": "Feature", "properties": {"norad_id": 34651, "name": "IRIDIUM 33 DEB", "group": "iridium-33-debris", "lat": -32.808353108253804, "lon": -35.07383746123927, "alt_km": 710.867295888811, "timestamp": "2025-12-08T03:50:07.381620+00:00", "meta": {"OBJECT_NAME": "IRIDIUM 33 DEB", "OBJECT_ID": "1997-051KC", "EPOCH": "2025-12-06T22:11:54.879936", "MEAN_MOTION": 14.25664536, "ECCENTRICITY": 0.01419317, "INCLINATION": 86.2838, "RA_OF_ASC_NODE": 143.05, "ARG_OF_PERICENTER": 222.4049, "MEAN_ANOMALY": 136.6106, "EPHEMERIS_TYPE": 0, "CLASSIFICATION_TYPE": "U", "NORAD_CAT_ID": 34651, "ELEMENT_SET_NO": 999, "REV_AT_EPOCH": 85813, "BSTAR": 0.004978077, "MEAN_MOTION_DOT": 0.00013145, "MEAN_MOTION_DDOT": 0}, "tle": {"line1": "1 34651U 97051KC  25340.92494074  .00013145  00000+0  49781-2 0  9998", "line2": "2 34651  86.2838 143.0500 0141931 222.4049 136.6106 14.25664536858131"}}, "geometry": {"type": "Point", "coordinates": [-35.07383746123927, -32.808353108253804]}}, {"type": "Feature", "properties": {"norad_id": 34652, "name": "IRIDIUM 33 DEB", "group": "iridium-33-debris", "lat": 27.083087216887993, "lon": -16.078752581395136, "alt_km": 680.0192165980616, "timestamp": "2025-12-08T03:50:07.381631+00:00", "meta": {"OBJECT_NAME": "IRIDIUM 33 DEB", "OBJECT_ID": "1997-051KD", "EPOCH": "2025-12-06T23:55:08.624640", "MEAN_MOTION": 14.61974731, "ECCENTRICITY": 0.00265351, "INCLINATION": 86.331, "RA_OF_ASC_NODE": 342.5586, "ARG_OF_PERICENTER": 318.9776, "MEAN_ANOMALY": 69.9638, "EPHEMERIS_TYPE": 0, "CLASSIFICATION_TYPE": "U", "NORAD_CAT_ID": 34652, "ELEMENT_SET_NO": 999, "REV_AT_EPOCH": 88400, "BSTAR": 0.0015568866, "MEAN_MOTION_DOT": 7.862e-05, "MEAN_MOTION_DDOT": 0}, "tle": {"line1": "1 34652U 97051KD  25340.99662760  .00007862  00000+0  15569-2 0  9991", "line2": "2 34652  86.3310 342.5586 0026535 318.9776  69.9638 14.61974731884002"}}, "geometry": {"type": "Point", "coordinates": [-16.078752581395136, 27.083087216887993]}}, {"type": "Feature", "properties": {"norad_id": 34690, "name": "IRIDIUM 33 DEB", "group": "iridium-33-debris", "lat": 3.8852457288284845, "lon": 39.22847780750334, "alt_km": 705.3390803151433, "timestamp": "2025-12-08T03:50:07.381641+00:00", "meta": {"OBJECT_NAME": "IRIDIUM 33 DEB", "OBJECT_ID": "1997-051KM", "EPOCH": "2025-12-06T22:39:51.154848", "MEAN_MOTION": 14.55062942, "ECCENTRICITY": 0.00114779, "INCLINATION": 86.3784, "RA_OF_ASC_NODE": 39.5101, "ARG_OF_PERICENTER": 46.8175, "MEAN_ANOMALY": 74.4761, "EPHEMERIS_TYPE": 0, "CLASSIFICATION_TYPE": "U", "NORAD_CAT_ID": 34690, "ELEMENT_SET_NO": 999, "REV_AT_EPOCH": 88010, "BSTAR": 0.0008002396, "MEAN_MOTION_DOT": 3.473e-05, "MEAN_MOTION_DDOT": 0}, "tle": {"line1": "1 34690U 97051KM  25340.94434207  .00003473  00000+0  80024-3 0  9994", "line2": "2 34690  86.3784  39.5101 0011477  46.8175  74.4761 14.55062942880104"}}, "geometry": {"type": "Point", "coordinates": [39.22847780750334, 3.8852457288284845]}}, {"type": "Feature", "properties": {"norad_id": 34693, "name": "IRIDIUM 33 DEB", "group": "iridium-33-debris", "lat": -53.09581918461718, "lon": -58.83830998819246, "alt_km": 497.6251210085684, "timestamp": "2025-12-08T03:50:07.381651+00:00", "meta": {"OBJECT_NAME": "IRIDIUM 33 DEB", "OBJECT_ID": "1997-051KQ", "EPOCH": "2025-12-07T04:31:14.076768", "MEAN_MOTION": 15.26022531, "ECCENTRICITY": 0.00151617, "INCLINATION": 86.3058, "RA_OF_ASC_NODE": 306.5787, "ARG_OF_PERICENTER": 61.8595, "MEAN_ANOMALY": 311.3887, "EPHEMERIS_TYPE": 0, "CLASSIFICATION_TYPE": "U", "NORAD_CAT_ID": 34693, "ELEMENT_SET_NO": 999, "REV_AT_EPOCH": 88830, "BSTAR": 0.0063934031, "MEAN_MOTION_DOT": 0.00168404, "MEAN_MOTION_DDOT": 0}, "tle": {"line1": "1 34693U 97051KQ  25341.18835737  .00168404  00000+0  63934-2 0  9993", "line2": "2 34693  86.3058 306.5787 0015161  61.8595 311.3887 15.26022531888306"}}, "geometry": {"type": "Point", "coordinates": [-58.83830998819246, -53.09581918461718]}}, {"type": "Feature", "properties": {"norad_id": 34696, "name": "IRIDIUM 33 DEB", "group": "iridium-33-debris", "lat": -18.90761438737602, "lon": 28.344125800853835, "alt_km": 731.5797654158641, "timestamp": "2025-12-08T03:50:07.381661+00:00", "meta": {"OBJECT_NAME": "IRIDIUM 33 DEB", "OBJECT_ID": "1997-051KT", "EPOCH": "2025-12-06T02:52:04.787040", "MEAN_MOTION": 14.64546294, "ECCENTRICITY": 0.00743893, "INCLINATION": 86.1858, "RA_OF_ASC_NODE": 30.6015, "ARG_OF_PERICENTER": 190.2234, "MEAN_ANOMALY": 199.6161, "EPHEMERIS_TYPE": 0, "CLASSIFICATION_TYPE": "U", "NORAD_CAT_ID": 34696, "ELEMENT_SET_NO": 999, "REV_AT_EPOCH": 86576, "BSTAR": 0.0088114057, "MEAN_MOTION_DOT": 0.00048964, "MEAN_MOTION_DDOT": 0}, "tle": {"line1": "1 34696U 97051KT  25340.11949985  .00048964  00000+0  88114-2 0  9994", "line2": "2 34696  86.1858  30.6015 0074389 190.2234 199.6161 14.64546294865763"}}, "geometry": {"type": "Point", "coordinates": [28.344125800853835, -18.90761438737602]}}, {"type": "Feature", "properties": {"norad_id": 34765, "name": "IRIDIUM 33 DEB", "group": "iridium-33-debris", "lat": -84.79260883995529, "lon": -9.89629610055078, "alt_km": 756.9700555243044, "timestamp": "2025-12-08T03:50:07.381672+00:00", "meta": {"OBJECT_NAME": "IRIDIUM 33 DEB", "OBJECT_ID": "1997-051LJ", "EPOCH": "2025-12-07T03:21:49.403232", "MEAN_MOTION": 14.40442666, "ECCENTRICITY": 0.00149367, "INCLINATION": 86.3394, "RA_OF_ASC_NODE": 35.1639, "ARG_OF_PERICENTER": 231.7841, "MEAN_ANOMALY": 157.6535, "EPHEMERIS_TYPE": 0, "CLASSIFICATION_TYPE": "U", "NORAD_CAT_ID": 34765, "ELEMENT_SET_NO": 999, "REV_AT_EPOCH": 87533, "BSTAR": 0.00072141462, "MEAN_MOTION_DOT": 2.313e-05, "MEAN_MOTION_DDOT": 0}, "tle": {"line1": "1 34765U 97051LJ  25341.14015513  .00002313  00000+0  72141-3 0  9998", "line2": "2 34765  86.3394  35.1639 0014936 231.7841 157.6535 14.40442666875331"}}, "geometry": {"type": "Point", "coordinates": [-9.89629610055078, -84.79260883995529]}}]}